[{"OBJECT_NAME":"DONGPO 08","OBJECT_ID":"2022-167E","EPOCH":"2026-03-09T22:57:52.742880","MEAN_MOTION":15.31542505,"ECCENTRICITY":0.00092155,"INCLINATION":97.6764,"RA_OF_ASC_NODE":233.3854,"ARG_OF_PERICENTER":153.9158,"MEAN_ANOMALY":206.2548,"EPHEMERIS_TYPE":0,"CLASSIFICATION_TYPE":"U","NORAD_CAT_ID":54686,"ELEMENT_SET_NO":999,"REV_AT_EPOCH":18012,"BSTAR":0.0004734784,"MEAN_MOTION_DOT":0.0001437,"MEAN_MOTION_DDOT":0},{"OBJECT_NAME":"STARLINK-35571","OBJECT_ID":"2025-236D","EPOCH":"2026-03-09T19:17:53.238624","MEAN_MOTION":15.30200179,"ECCENTRICITY":0.00014767,"INCLINATION":53.1593,"RA_OF_ASC_NODE":103.2323,"ARG_OF_PERICENTER":88.658,"MEAN_ANOMALY":271.459,"EPHEMERIS_TYPE":0,"CLASSIFICATION_TYPE":"U","NORAD_CAT_ID":66089,"ELEMENT_SET_NO":999,"REV_AT_EPOCH":2296,"BSTAR":0.00063193453,"MEAN_MOTION_DOT":0.00018403,"MEAN_MOTION_DDOT":0}]
